{
  "type": "FeatureCollection",
  "features": [
    {
      "type": "Feature",
      "properties": {
        "norad_id": 29770,
        "name": "FENGYUN 1C DEB",
        "group": "fengyun-1c-debris",
        "lat": 58.40631657136177,
        "lon": -96.05720675971295,
        "alt_km": 848.826266261889,
        "timestamp": "2025-12-19T16:54:44.532424+00:00",
        "meta_object_name": "FENGYUN 1C DEB",
        "meta_object_id": "1999-025BL",
        "meta_epoch": "2025-12-19T04:37:45.714144",
        "meta_mean_motion": 14.20153174,
        "meta_eccentricity": 0.00633846,
        "meta_inclination": 98.8465,
        "meta_ra_of_asc_node": 68.7635,
        "meta_arg_of_pericenter": 252.6745,
        "meta_mean_anomaly": 133.179,
        "meta_ephemeris_type": 0,
        "meta_classification_type": "U",
        "meta_norad_cat_id": 29770,
        "meta_element_set_no": 999,
        "meta_rev_at_epoch": 97178,
        "meta_bstar": 0.0010892188,
        "meta_mean_motion_dot": 2.326e-05,
        "meta_mean_motion_ddot": 0,
        "tle_line1": "1 29770U 99025BL  25353.19289021  .00002326  00000+0  10892-2 0  9994",
        "tle_line2": "2 29770  98.8465  68.7635 0063384 252.6745 133.1790 14.20153174971781"
      },
      "geometry": {
        "type": "Point",
        "coordinates": [
          -96.05720675971295,
          58.40631657136177
        ]
      }
    },
    {
      "type": "Feature",
      "properties": {
        "norad_id": 29772,
        "name": "FENGYUN 1C DEB",
        "group": "fengyun-1c-debris",
        "lat": -21.70620958809092,
        "lon": -154.26944077342242,
        "alt_km": 848.1904338406512,
        "timestamp": "2025-12-19T16:54:44.532434+00:00",
        "meta_object_name": "FENGYUN 1C DEB",
        "meta_object_id": "1999-025BN",
        "meta_epoch": "2025-12-17T20:35:52.099296",
        "meta_mean_motion": 14.03229234,
        "meta_eccentricity": 0.01377936,
        "meta_inclination": 98.3866,
        "meta_ra_of_asc_node": 200.6611,
        "meta_arg_of_pericenter": 276.0163,
        "meta_mean_anomaly": 98.373,
        "meta_ephemeris_type": 0,
        "meta_classification_type": "U",
        "meta_norad_cat_id": 29772,
        "meta_element_set_no": 999,
        "meta_rev_at_epoch": 96327,
        "meta_bstar": 0.00087765197,
        "meta_mean_motion_dot": 1.448e-05,
        "meta_mean_motion_ddot": 0,
        "tle_line1": "1 29772U 99025BN  25351.85824189  .00001448  00000+0  87765-3 0  9995",
        "tle_line2": "2 29772  98.3866 200.6611 0137793 276.0163  98.3730 14.03229234963277"
      },
      "geometry": {
        "type": "Point",
        "coordinates": [
          -154.26944077342242,
          -21.70620958809092
        ]
      }
    },
    {
      "type": "Feature",
      "properties": {
        "norad_id": 29773,
        "name": "FENGYUN 1C DEB",
        "group": "fengyun-1c-debris",
        "lat": -80.11444280865243,
        "lon": -147.24479031806038,
        "alt_km": 773.898946102162,
        "timestamp": "2025-12-19T16:54:44.532445+00:00",
        "meta_object_name": "FENGYUN 1C DEB",
        "meta_object_id": "1999-025BP",
        "meta_epoch": "2025-12-18T16:08:57.085152",
        "meta_mean_motion": 14.27580936,
        "meta_eccentricity": 0.00464058,
        "meta_inclination": 98.9875,
        "meta_ra_of_asc_node": 146.4432,
        "meta_arg_of_pericenter": 273.2603,
        "meta_mean_anomaly": 101.1,
        "meta_ephemeris_type": 0,
        "meta_classification_type": "U",
        "meta_norad_cat_id": 29773,
        "meta_element_set_no": 999,
        "meta_rev_at_epoch": 98282,
        "meta_bstar": 0.00029427504,
        "meta_mean_motion_dot": 6.85e-06,
        "meta_mean_motion_ddot": 0,
        "tle_line1": "1 29773U 99025BP  25352.67288293  .00000685  00000+0  29428-3 0  9991",
        "tle_line2": "2 29773  98.9875 146.4432 0046405 273.2603 101.1000 14.27580936982829"
      },
      "geometry": {
        "type": "Point",
        "coordinates": [
          -147.24479031806038,
          -80.11444280865243
        ]
      }
    },
    {
      "type": "Feature",
      "properties": {
        "norad_id": 29774,
        "name": "FENGYUN 1C DEB",
        "group": "fengyun-1c-debris",
        "lat": 58.97130171917708,
        "lon": 129.6544166509092,
        "alt_km": 774.889517264698,
        "timestamp": "2025-12-19T16:54:44.532455+00:00",
        "meta_object_name": "FENGYUN 1C DEB",
        "meta_object_id": "1999-025BQ",
        "meta_epoch": "2025-12-19T06:59:33.111744",
        "meta_mean_motion": 14.22737422,
        "meta_eccentricity": 0.00512884,
        "meta_inclination": 99.0771,
        "meta_ra_of_asc_node": 293.8166,
        "meta_arg_of_pericenter": 104.8196,
        "meta_mean_anomaly": 58.9453,
        "meta_ephemeris_type": 0,
        "meta_classification_type": "U",
        "meta_norad_cat_id": 29774,
        "meta_element_set_no": 999,
        "meta_rev_at_epoch": 98168,
        "meta_bstar": 0.00012905144,
        "meta_mean_motion_dot": 2.46e-06,
        "meta_mean_motion_ddot": 0,
        "tle_line1": "1 29774U 99025BQ  25353.29135546  .00000246  00000+0  12905-3 0  9998",
        "tle_line2": "2 29774  99.0771 293.8166 0051288 104.8196  58.9453 14.22737422981682"
      },
      "geometry": {
        "type": "Point",
        "coordinates": [
          129.6544166509092,
          58.97130171917708
        ]
      }
    },
    {
      "type": "Feature",
      "properties": {
        "norad_id": 29776,
        "name": "FENGYUN 1C DEB",
        "group": "fengyun-1c-debris",
        "lat": -8.010970593020426,
        "lon": 21.502375736004204,
        "alt_km": 874.1519719006137,
        "timestamp": "2025-12-19T16:54:44.532466+00:00",
        "meta_object_name": "FENGYUN 1C DEB",
        "meta_object_id": "1999-025BS",
        "meta_epoch": "2025-12-19T00:10:38.462304",
        "meta_mean_motion": 14.07779263,
        "meta_eccentricity": 0.00228729,
        "meta_inclination": 98.7705,
        "meta_ra_of_asc_node": 19.5803,
        "meta_arg_of_pericenter": 252.3866,
        "meta_mean_anomaly": 167.4498,
        "meta_ephemeris_type": 0,
        "meta_classification_type": "U",
        "meta_norad_cat_id": 29776,
        "meta_element_set_no": 999,
        "meta_rev_at_epoch": 97168,
        "meta_bstar": 0.00018392749,
        "meta_mean_motion_dot": 2.69e-06,
        "meta_mean_motion_ddot": 0,
        "tle_line1": "1 29776U 99025BS  25353.00738961  .00000269  00000+0  18393-3 0  9991",
        "tle_line2": "2 29776  98.7705  19.5803 0022872 252.3866 167.4498 14.07779263971684"
      },
      "geometry": {
        "type": "Point",
        "coordinates": [
          21.502375736004204,
          -8.010970593020426
        ]
      }
    },
    {
      "type": "Feature",
      "properties": {
        "norad_id": 29777,
        "name": "FENGYUN 1C DEB",
        "group": "fengyun-1c-debris",
        "lat": 5.3347119721562875,
        "lon": 49.70050981537787,
        "alt_km": 990.9631016351341,
        "timestamp": "2025-12-19T16:54:44.532477+00:00",
        "meta_object_name": "FENGYUN 1C DEB",
        "meta_object_id": "1999-025BT",
        "meta_epoch": "2025-12-19T03:23:46.487328",
        "meta_mean_motion": 13.92107141,
        "meta_eccentricity": 0.00929671,
        "meta_inclination": 99.2827,
        "meta_ra_of_asc_node": 50.0118,
        "meta_arg_of_pericenter": 192.396,
        "meta_mean_anomaly": 232.1616,
        "meta_ephemeris_type": 0,
        "meta_classification_type": "U",
        "meta_norad_cat_id": 29777,
        "meta_element_set_no": 999,
        "meta_rev_at_epoch": 96130,
        "meta_bstar": 3.7091783e-05,
        "meta_mean_motion_dot": 4e-08,
        "meta_mean_motion_ddot": 0,
        "tle_line1": "1 29777U 99025BT  25353.14151027  .00000004  00000+0  37092-4 0  9994",
        "tle_line2": "2 29777  99.2827  50.0118 0092967 192.3960 232.1616 13.92107141961308"
      },
      "geometry": {
        "type": "Point",
        "coordinates": [
          49.70050981537787,
          5.3347119721562875
        ]
      }
    },
    {
      "type": "Feature",
      "properties": {
        "norad_id": 29779,
        "name": "FENGYUN 1C DEB",
        "group": "fengyun-1c-debris",
        "lat": 39.9153868842852,
        "lon": -167.92762929773966,
        "alt_km": 798.5254061911755,
        "timestamp": "2025-12-19T16:54:44.532487+00:00",
        "meta_object_name": "FENGYUN 1C DEB",
        "meta_object_id": "1999-025BV",
        "meta_epoch": "2025-12-18T23:16:01.926336",
        "meta_mean_motion": 14.13448228,
        "meta_eccentricity": 0.00637808,
        "meta_inclination": 98.6769,
        "meta_ra_of_asc_node": 4.0196,
        "meta_arg_of_pericenter": 146.5262,
        "meta_mean_anomaly": 213.9967,
        "meta_ephemeris_type": 0,
        "meta_classification_type": "U",
        "meta_norad_cat_id": 29779,
        "meta_element_set_no": 999,
        "meta_rev_at_epoch": 97500,
        "meta_bstar": 0.00019719423,
        "meta_mean_motion_dot": 3.36e-06,
        "meta_mean_motion_ddot": 0,
        "tle_line1": "1 29779U 99025BV  25352.96946674  .00000336  00000+0  19719-3 0  9998",
        "tle_line2": "2 29779  98.6769   4.0196 0063780 146.5262 213.9967 14.13448228975006"
      },
      "geometry": {
        "type": "Point",
        "coordinates": [
          -167.92762929773966,
          39.9153868842852
        ]
      }
    }
  ]
}